{
  "type": "FeatureCollection",
  "features": [
    {
      "type": "Feature",
      "properties": {
        "norad_id": 34079,
        "name": "IRIDIUM 33 DEB",
        "group": "iridium-33-debris",
        "lat": 10.193652439704618,
        "lon": 4.671723283171635,
        "alt_km": 616.6775213711626,
        "timestamp": "2025-12-22T22:44:21.363473+00:00",
        "meta_object_name": "IRIDIUM 33 DEB",
        "meta_object_id": "1997-051CN",
        "meta_epoch": "2025-12-21T13:15:26.349984",
        "meta_mean_motion": 14.83733705,
        "meta_eccentricity": 0.000457,
        "meta_inclination": 86.3769,
        "meta_ra_of_asc_node": 4.6535,
        "meta_arg_of_pericenter": 336.3629,
        "meta_mean_anomaly": 147.0439,
        "meta_ephemeris_type": 0,
        "meta_classification_type": "U",
        "meta_norad_cat_id": 34079,
        "meta_element_set_no": 999,
        "meta_rev_at_epoch": 89108,
        "meta_bstar": 0.0012935,
        "meta_mean_motion_dot": 0.00010729,
        "meta_mean_motion_ddot": 0,
        "tle_line1": "1 34079U 97051CN  25355.55238831  .00010729  00000+0  12935-2 0  9990",
        "tle_line2": "2 34079  86.3769   4.6535 0004570 336.3629 147.0439 14.83733705891080"
      },
      "geometry": {
        "type": "Point",
        "coordinates": [
          4.671723283171635,
          10.193652439704618
        ]
      }
    },
    {
      "type": "Feature",
      "properties": {
        "norad_id": 34088,
        "name": "IRIDIUM 33 DEB",
        "group": "iridium-33-debris",
        "lat": 33.26751477076862,
        "lon": 28.409905729838624,
        "alt_km": 592.0464549194121,
        "timestamp": "2025-12-22T22:44:21.363484+00:00",
        "meta_object_name": "IRIDIUM 33 DEB",
        "meta_object_id": "1997-051CX",
        "meta_epoch": "2025-12-22T13:39:24.186816",
        "meta_mean_motion": 14.91794999,
        "meta_eccentricity": 0.00067858,
        "meta_inclination": 86.3835,
        "meta_ra_of_asc_node": 26.2058,
        "meta_arg_of_pericenter": 145.716,
        "meta_mean_anomaly": 16.7414,
        "meta_ephemeris_type": 0,
        "meta_classification_type": "U",
        "meta_norad_cat_id": 34088,
        "meta_element_set_no": 999,
        "meta_rev_at_epoch": 88888,
        "meta_bstar": 0.0024600846,
        "meta_mean_motion_dot": 0.00024895,
        "meta_mean_motion_ddot": 0,
        "tle_line1": "1 34088U 97051CX  25356.56902994  .00024895  00000+0  24601-2 0  9992",
        "tle_line2": "2 34088  86.3835  26.2058 0006785 145.7160  16.7414 14.91794999888886"
      },
      "geometry": {
        "type": "Point",
        "coordinates": [
          28.409905729838624,
          33.26751477076862
        ]
      }
    },
    {
      "type": "Feature",
      "properties": {
        "norad_id": 34091,
        "name": "IRIDIUM 33 DEB",
        "group": "iridium-33-debris",
        "lat": -53.18046659623184,
        "lon": -112.94000644768263,
        "alt_km": 606.4512262984672,
        "timestamp": "2025-12-22T22:44:21.363495+00:00",
        "meta_object_name": "IRIDIUM 33 DEB",
        "meta_object_id": "1997-051DA",
        "meta_epoch": "2025-12-22T10:20:53.328192",
        "meta_mean_motion": 14.82487394,
        "meta_eccentricity": 0.00342148,
        "meta_inclination": 86.3415,
        "meta_ra_of_asc_node": 62.3938,
        "meta_arg_of_pericenter": 258.5059,
        "meta_mean_anomaly": 101.232,
        "meta_ephemeris_type": 0,
        "meta_classification_type": "U",
        "meta_norad_cat_id": 34091,
        "meta_element_set_no": 999,
        "meta_rev_at_epoch": 88010,
        "meta_bstar": 0.0054603903,
        "meta_mean_motion_dot": 0.00044519,
        "meta_mean_motion_ddot": 0,
        "tle_line1": "1 34091U 97051DA  25356.43117278  .00044519  00000+0  54604-2 0  9996",
        "tle_line2": "2 34091  86.3415  62.3938 0034214 258.5059 101.2320 14.82487394880101"
      },
      "geometry": {
        "type": "Point",
        "coordinates": [
          -112.94000644768263,
          -53.18046659623184
        ]
      }
    },
    {
      "type": "Feature",
      "properties": {
        "norad_id": 34097,
        "name": "IRIDIUM 33 DEB",
        "group": "iridium-33-debris",
        "lat": -3.0553476771203765,
        "lon": 177.10473853696033,
        "alt_km": 827.1630953836275,
        "timestamp": "2025-12-22T22:44:21.363505+00:00",
        "meta_object_name": "IRIDIUM 33 DEB",
        "meta_object_id": "1997-051DG",
        "meta_epoch": "2025-12-22T10:10:07.648896",
        "meta_mean_motion": 14.34850685,
        "meta_eccentricity": 0.00816282,
        "meta_inclination": 86.1999,
        "meta_ra_of_asc_node": 357.1326,
        "meta_arg_of_pericenter": 330.4879,
        "meta_mean_anomaly": 29.172,
        "meta_ephemeris_type": 0,
        "meta_classification_type": "U",
        "meta_norad_cat_id": 34097,
        "meta_element_set_no": 999,
        "meta_rev_at_epoch": 87258,
        "meta_bstar": 0.0014468202,
        "meta_mean_motion_dot": 4.282e-05,
        "meta_mean_motion_ddot": 0,
        "tle_line1": "1 34097U 97051DG  25356.42369964  .00004282  00000+0  14468-2 0  9999",
        "tle_line2": "2 34097  86.1999 357.1326 0081628 330.4879  29.1720 14.34850685872588"
      },
      "geometry": {
        "type": "Point",
        "coordinates": [
          177.10473853696033,
          -3.0553476771203765
        ]
      }
    },
    {
      "type": "Feature",
      "properties": {
        "norad_id": 34145,
        "name": "IRIDIUM 33 DEB",
        "group": "iridium-33-debris",
        "lat": 7.554812206180089,
        "lon": -31.516559509620436,
        "alt_km": 729.0712411564546,
        "timestamp": "2025-12-22T22:44:21.363516+00:00",
        "meta_object_name": "IRIDIUM 33 DEB",
        "meta_object_id": "1997-051DY",
        "meta_epoch": "2025-12-22T04:23:22.180704",
        "meta_mean_motion": 14.42352181,
        "meta_eccentricity": 0.00556524,
        "meta_inclination": 86.2122,
        "meta_ra_of_asc_node": 328.3204,
        "meta_arg_of_pericenter": 63.8456,
        "meta_mean_anomaly": 296.8453,
        "meta_ephemeris_type": 0,
        "meta_classification_type": "U",
        "meta_norad_cat_id": 34145,
        "meta_element_set_no": 999,
        "meta_rev_at_epoch": 87774,
        "meta_bstar": 0.0011263527,
        "meta_mean_motion_dot": 3.81e-05,
        "meta_mean_motion_ddot": 0,
        "tle_line1": "1 34145U 97051DY  25356.18289561  .00003810  00000+0  11264-2 0  9997",
        "tle_line2": "2 34145  86.2122 328.3204 0055652  63.8456 296.8453 14.42352181877748"
      },
      "geometry": {
        "type": "Point",
        "coordinates": [
          -31.516559509620436,
          7.554812206180089
        ]
      }
    },
    {
      "type": "Feature",
      "properties": {
        "norad_id": 34146,
        "name": "IRIDIUM 33 DEB",
        "group": "iridium-33-debris",
        "lat": -73.69896002344292,
        "lon": 178.13133624960247,
        "alt_km": 728.783397240335,
        "timestamp": "2025-12-22T22:44:21.363526+00:00",
        "meta_object_name": "IRIDIUM 33 DEB",
        "meta_object_id": "1997-051DZ",
        "meta_epoch": "2025-12-22T12:12:34.513056",
        "meta_mean_motion": 14.49108605,
        "meta_eccentricity": 0.0026525,
        "meta_inclination": 86.2838,
        "meta_ra_of_asc_node": 345.4841,
        "meta_arg_of_pericenter": 187.7667,
        "meta_mean_anomaly": 298.6983,
        "meta_ephemeris_type": 0,
        "meta_classification_type": "U",
        "meta_norad_cat_id": 34146,
        "meta_element_set_no": 999,
        "meta_rev_at_epoch": 88248,
        "meta_bstar": 0.00085220356,
        "meta_mean_motion_dot": 3.272e-05,
        "meta_mean_motion_ddot": 0,
        "tle_line1": "1 34146U 97051DZ  25356.50873279  .00003272  00000+0  85220-3 0  9995",
        "tle_line2": "2 34146  86.2838 345.4841 0026525 187.7667 298.6983 14.49108605882489"
      },
      "geometry": {
        "type": "Point",
        "coordinates": [
          178.13133624960247,
          -73.69896002344292
        ]
      }
    },
    {
      "type": "Feature",
      "properties": {
        "norad_id": 34159,
        "name": "IRIDIUM 33 DEB",
        "group": "iridium-33-debris",
        "lat": -59.08626512308775,
        "lon": 37.76921551007426,
        "alt_km": 758.3263007238038,
        "timestamp": "2025-12-22T22:44:21.363536+00:00",
        "meta_object_name": "IRIDIUM 33 DEB",
        "meta_object_id": "1997-051EN",
        "meta_epoch": "2025-12-22T02:58:50.860992",
        "meta_mean_motion": 14.38515401,
        "meta_eccentricity": 0.00260752,
        "meta_inclination": 86.3498,
        "meta_ra_of_asc_node": 44.2398,
        "meta_arg_of_pericenter": 254.6532,
        "meta_mean_anomaly": 105.1785,
        "meta_ephemeris_type": 0,
        "meta_classification_type": "U",
        "meta_norad_cat_id": 34159,
        "meta_element_set_no": 999,
        "meta_rev_at_epoch": 88094,
        "meta_bstar": 0.00034381361,
        "meta_mean_motion_dot": 1.073e-05,
        "meta_mean_motion_ddot": 0,
        "tle_line1": "1 34159U 97051EN  25356.12419978  .00001073  00000+0  34381-3 0  9998",
        "tle_line2": "2 34159  86.3498  44.2398 0026075 254.6532 105.1785 14.38515401880947"
      },
      "geometry": {
        "type": "Point",
        "coordinates": [
          37.76921551007426,
          -59.08626512308775
        ]
      }
    }
  ]
}